[{"OBJECT_NAME":"STARLINK-3966","OBJECT_ID":"2022-051V","EPOCH":"2026-03-09T08:07:20.180928","MEAN_MOTION":15.08835623,"ECCENTRICITY":0.00012359,"INCLINATION":53.2168,"RA_OF_ASC_NODE":130.8518,"ARG_OF_PERICENTER":101.291,"MEAN_ANOMALY":258.8221,"EPHEMERIS_TYPE":0,"CLASSIFICATION_TYPE":"U","NORAD_CAT_ID":52552,"ELEMENT_SET_NO":999,"REV_AT_EPOCH":21139,"BSTAR":-0.00012890158,"MEAN_MOTION_DOT":-2.338e-5,"MEAN_MOTION_DDOT":0},{"OBJECT_NAME":"CZ-4C R\/B","OBJECT_ID":"2021-026B","EPOCH":"2026-03-09T16:37:41.696544","MEAN_MOTION":15.16445633,"ECCENTRICITY":0.00393855,"INCLINATION":97.7468,"RA_OF_ASC_NODE":117.371,"ARG_OF_PERICENTER":22.5612,"MEAN_ANOMALY":337.7341,"EPHEMERIS_TYPE":0,"CLASSIFICATION_TYPE":"U","NORAD_CAT_ID":48080,"ELEMENT_SET_NO":999,"REV_AT_EPOCH":27175,"BSTAR":0.00026802982,"MEAN_MOTION_DOT":5.244e-5,"MEAN_MOTION_DDOT":0}]
